ONEWEB-0578             
1 56067U 23043X   24151.22304716  .00000014  00000+0  25867-5 0  9991
2 56067  87.9308  32.8635 0001795  77.2576 282.8759 13.21823965 60337
ONEWEB-0579             
1 56068U 23043Y   24150.75940855  .00000072  00000+0  14166-3 0  9991
2 56068  87.9303  32.9533 0002061  92.3530 267.7840 13.21824454 60287
ONEWEB-0581             
1 56069U 23043Z   24150.65620884 -.00000191  00000+0 -53222-3 0  9998
2 56069  87.9120  17.8091 0001522 104.0621 256.0679 13.16593597 60465
ONEWEB-0609             
1 56070U 23043AA  24151.15991990 -.00000086  00000+0 -26315-3 0  9991
2 56070  87.9052  48.0772 0001948  78.7309 281.4040 13.15548110 58994
ONEWEB-0613             
1 56071U 23043AB  24150.77489747  .00000183  00000+0  45334-3 0  9999
2 56071  87.9059  48.1490 0002155  87.0710 273.0666 13.15547899 58039
ONEWEB-0630             
1 56072U 23043AC  24150.77014540  .00000058  00000+0  11957-3 0  9990
2 56072  87.9054  48.1413 0002257  84.4735 275.6653 13.15548351 58028
ONEWEB-0632             
1 56073U 23043AD  24151.22173430  .00000063  00000+0  13285-3 0  9998
2 56073  87.9054  48.0701 0001752  92.0788 268.0543 13.15547963 58998
ONEWEB-0633             
1 56074U 23043AE  24150.75903509 -.00000245  00000+0 -68472-3 0  9996
2 56074  87.9050  48.1446 0002465  82.7887 277.3523 13.15547817 58001
